{"fetched_at":"2026-07-22T07:09:22.096Z","source":"https://celestrak.org/NORAD/elements/gp.php?GROUP=oneweb&FORMAT=JSON","constellation":"oneweb","records":[{"OBJECT_NAME":"ONEWEB-0275","OBJECT_ID":"2021-060AC","EPOCH":"2026-07-21T12:05:47.607936","CLASSIFICATION_TYPE":"U","MEAN_MOTION":13.16588646,"ECCENTRICITY":0.00011789,"INCLINATION":87.9078,"RA_OF_ASC_NODE":221.959,"ARG_OF_PERICENTER":99.8223,"MEAN_ANOMALY":260.3042,"EPHEMERIS_TYPE":0,"NORAD_CAT_ID":48993,"ELEMENT_SET_NO":999,"REV_AT_EPOCH":24407,"BSTAR":0.00023924279,"MEAN_MOTION_DOT":0.00000104,"MEAN_MOTION_DDOT":0},{"OBJECT_NAME":"ONEWEB-0276","OBJECT_ID":"2021-060AD","EPOCH":"2026-07-21T07:25:25.306752","CLASSIFICATION_TYPE":"U","MEAN_MOTION":13.16594618,"ECCENTRICITY":0.00019153,"INCLINATION":87.9077,"RA_OF_ASC_NODE":221.9967,"ARG_OF_PERICENTER":94.4075,"MEAN_ANOMALY":265.7275,"EPHEMERIS_TYPE":0,"NORAD_CAT_ID":48994,"ELEMENT_SET_NO":999,"REV_AT_EPOCH":24406,"BSTAR":-0.000070958527,"MEAN_MOTION_DOT":-1.4e-7,"MEAN_MOTION_DDOT":0},{"OBJECT_NAME":"ONEWEB-0277","OBJECT_ID":"2021-060AE","EPOCH":"2026-07-21T11:22:31.765728","CLASSIFICATION_TYPE":"U","MEAN_MOTION":13.16595205,"ECCENTRICITY":0.0002192,"INCLINATION":87.9072,"RA_OF_ASC_NODE":221.971,"ARG_OF_PERICENTER":96.3391,"MEAN_ANOMALY":263.7989,"EPHEMERIS_TYPE":0,"NORAD_CAT_ID":48995,"ELEMENT_SET_NO":999,"REV_AT_EPOCH":24407,"BSTAR":-0.00022150249,"MEAN_MOTION_DOT":-7.2e-7,"MEAN_MOTION_DDOT":0},{"OBJECT_NAME":"ONEWEB-0278","OBJECT_ID":"2021-060AF","EPOCH":"2026-07-21T07:29:58.993440","CLASSIFICATION_TYPE":"U","MEAN_MOTION":13.16594167,"ECCENTRICITY":0.00021603,"INCLINATION":87.9078,"RA_OF_ASC_NODE":221.9957,"ARG_OF_PERICENTER":87.2637,"MEAN_ANOMALY":272.8741,"EPHEMERIS_TYPE":0,"NORAD_CAT_ID":48996,"ELEMENT_SET_NO":999,"REV_AT_EPOCH":24418,"BSTAR":-0.00028037194,"MEAN_MOTION_DOT":-9.4e-7,"MEAN_MOTION_DDOT":0},{"OBJECT_NAME":"ONEWEB-0279","OBJECT_ID":"2021-060AG","EPOCH":"2026-07-21T02:13:04.503936","CLASSIFICATION_TYPE":"U","MEAN_MOTION":13.16594413,"ECCENTRICITY":0.00020455,"INCLINATION":87.9077,"RA_OF_ASC_NODE":222.0375,"ARG_OF_PERICENTER":99.9116,"MEAN_ANOMALY":260.2246,"EPHEMERIS_TYPE":0,"NORAD_CAT_ID":48997,"ELEMENT_SET_NO":999,"REV_AT_EPOCH":24408,"BSTAR":-0.000044430801,"MEAN_MOTION_DOT":-4e-8,"MEAN_MOTION_DDOT":0},{"OBJECT_NAME":"ONEWEB-0280","OBJECT_ID":"2021-060AH","EPOCH":"2026-07-21T11:41:53.666880","CLASSIFICATION_TYPE":"U","MEAN_MOTION":13.16595279,"ECCENTRICITY":0.00023951,"INCLINATION":87.9077,"RA_OF_ASC_NODE":221.9627,"ARG_OF_PERICENTER":91.2302,"MEAN_ANOMALY":268.9103,"EPHEMERIS_TYPE":0,"NORAD_CAT_ID":48998,"ELEMENT_SET_NO":999,"REV_AT_EPOCH":24407,"BSTAR":-0.000011565239,"MEAN_MOTION_DOT":8e-8,"MEAN_MOTION_DDOT":0},{"OBJECT_NAME":"ONEWEB-0281","OBJECT_ID":"2021-060AJ","EPOCH":"2026-07-21T02:42:41.277600","CLASSIFICATION_TYPE":"U","MEAN_MOTION":13.16591633,"ECCENTRICITY":0.00019219,"INCLINATION":87.9078,"RA_OF_ASC_NODE":222.0331,"ARG_OF_PERICENTER":92.9681,"MEAN_ANOMALY":267.167,"EPHEMERIS_TYPE":0,"NORAD_CAT_ID":48999,"ELEMENT_SET_NO":999,"REV_AT_EPOCH":24409,"BSTAR":-0.000004307763,"MEAN_MOTION_DOT":1.1e-7,"MEAN_MOTION_DDOT":0},{"OBJECT_NAME":"ONEWEB-0282","OBJECT_ID":"2021-060AK","EPOCH":"2026-07-21T07:04:53.446656","CLASSIFICATION_TYPE":"U","MEAN_MOTION":13.16595277,"ECCENTRICITY":0.00022105,"INCLINATION":87.9077,"RA_OF_ASC_NODE":222.0042,"ARG_OF_PERICENTER":94.6216,"MEAN_ANOMALY":265.5168,"EPHEMERIS_TYPE":0,"NORAD_CAT_ID":49000,"ELEMENT_SET_NO":999,"REV_AT_EPOCH":24409,"BSTAR":0.000050110743,"MEAN_MOTION_DOT":3.2e-7,"MEAN_MOTION_DDOT":0},{"OBJECT_NAME":"ONEWEB-0283","OBJECT_ID":"2021-060AL","EPOCH":"2026-07-21T03:10:03.999072","CLASSIFICATION_TYPE":"U","MEAN_MOTION":13.16593497,"ECCENTRICITY":0.00020372,"INCLINATION":87.9075,"RA_OF_ASC_NODE":222.0359,"ARG_OF_PERICENTER":97.7825,"MEAN_ANOMALY":262.3537,"EPHEMERIS_TYPE":0,"NORAD_CAT_ID":49001,"ELEMENT_SET_NO":999,"REV_AT_EPOCH":24408,"BSTAR":-0.00011799619,"MEAN_MOTION_DOT":-3.2e-7,"MEAN_MOTION_DDOT":0},{"OBJECT_NAME":"ONEWEB-0284","OBJECT_ID":"2021-060AM","EPOCH":"2026-07-21T12:08:08.020896","CLASSIFICATION_TYPE":"U","MEAN_MOTION":13.16594189,"ECCENTRICITY":0.00023601,"INCLINATION":87.9077,"RA_OF_ASC_NODE":221.9558,"ARG_OF_PERICENTER":88.8662,"MEAN_ANOMALY":271.2739,"EPHEMERIS_TYPE":0,"NORAD_CAT_ID":49002,"ELEMENT_SET_NO":999,"REV_AT_EPOCH":24411,"BSTAR":0.00022644545,"MEAN_MOTION_DOT":9.9e-7,"MEAN_MOTION_DDOT":0},{"OBJECT_NAME":"ONEWEB-0285","OBJECT_ID":"2021-075A","EPOCH":"2026-07-21T08:48:28.815552","CLASSIFICATION_TYPE":"U","MEAN_MOTION":13.12446997,"ECCENTRICITY":0.00016949,"INCLINATION":87.8978,"RA_OF_ASC_NODE":343.8681,"ARG_OF_PERICENTER":90.9344,"MEAN_ANOMALY":269.1979,"EPHEMERIS_TYPE":0,"NORAD_CAT_ID":49075,"ELEMENT_SET_NO":999,"REV_AT_EPOCH":23969,"BSTAR":0.00044444819,"MEAN_MOTION_DOT":0.00000173,"MEAN_MOTION_DDOT":0},{"OBJECT_NAME":"ONEWEB-0286","OBJECT_ID":"2021-075B","EPOCH":"2026-07-21T15:41:47.099904","CLASSIFICATION_TYPE":"U","MEAN_MOTION":13.12443026,"ECCENTRICITY":0.00016998,"INCLINATION":87.8968,"RA_OF_ASC_NODE":343.8245,"ARG_OF_PERICENTER":92.2293,"MEAN_ANOMALY":267.903,"EPHEMERIS_TYPE":0,"NORAD_CAT_ID":49076,"ELEMENT_SET_NO":999,"REV_AT_EPOCH":23908,"BSTAR":-0.0010155892,"MEAN_MOTION_DOT":-0.00000353,"MEAN_MOTION_DDOT":0},{"OBJECT_NAME":"ONEWEB-0287","OBJECT_ID":"2021-075C","EPOCH":"2026-07-21T09:55:58.063872","CLASSIFICATION_TYPE":"U","MEAN_MOTION":13.17648413,"ECCENTRICITY":0.00017125,"INCLINATION":87.9152,"RA_OF_ASC_NODE":359.0572,"ARG_OF_PERICENTER":80.5042,"MEAN_ANOMALY":279.6283,"EPHEMERIS_TYPE":0,"NORAD_CAT_ID":49077,"ELEMENT_SET_NO":999,"REV_AT_EPOCH":23813,"BSTAR":0.00017249263,"MEAN_MOTION_DOT":8e-7,"MEAN_MOTION_DDOT":0},{"OBJECT_NAME":"ONEWEB-0288","OBJECT_ID":"2021-075D","EPOCH":"2026-07-21T09:38:29.248224","CLASSIFICATION_TYPE":"U","MEAN_MOTION":13.12441316,"ECCENTRICITY":0.00018754,"INCLINATION":87.8977,"RA_OF_ASC_NODE":343.8538,"ARG_OF_PERICENTER":88.1578,"MEAN_ANOMALY":271.9765,"EPHEMERIS_TYPE":0,"NORAD_CAT_ID":49078,"ELEMENT_SET_NO":999,"REV_AT_EPOCH":23967,"BSTAR":0.00024239728,"MEAN_MOTION_DOT":0.000001,"MEAN_MOTION_DDOT":0},{"OBJECT_NAME":"ONEWEB-0289","OBJECT_ID":"2021-075E","EPOCH":"2026-07-21T09:02:29.989536","CLASSIFICATION_TYPE":"U","MEAN_MOTION":13.176504,"ECCENTRICITY":0.00022814,"INCLINATION":87.9156,"RA_OF_ASC_NODE":359.0833,"ARG_OF_PERICENTER":94.1411,"MEAN_ANOMALY":265.9982,"EPHEMERIS_TYPE":0,"NORAD_CAT_ID":49079,"ELEMENT_SET_NO":999,"REV_AT_EPOCH":23870,"BSTAR":0.00012581587,"MEAN_MOTION_DOT":6.2e-7,"MEAN_MOTION_DDOT":0},{"OBJECT_NAME":"ONEWEB-0290","OBJECT_ID":"2021-075F","EPOCH":"2026-07-21T10:12:58.263840","CLASSIFICATION_TYPE":"U","MEAN_MOTION":13.1764807,"ECCENTRICITY":0.00023513,"INCLINATION":87.9162,"RA_OF_ASC_NODE":359.0465,"ARG_OF_PERICENTER":94.9351,"MEAN_ANOMALY":265.2049,"EPHEMERIS_TYPE":0,"NORAD_CAT_ID":49080,"ELEMENT_SET_NO":999,"REV_AT_EPOCH":23812,"BSTAR":0.00022043256,"MEAN_MOTION_DOT":9.8e-7,"MEAN_MOTION_DDOT":0}]}
