{"epoch":1784710044,"count":18256,"objects":[{"id":"48993","name":"ONEWEB-0275","type":"PAYLOAD","l1":"1 48993U 21060AC  26202.50402324  .00000104  00000-0  23924-3 0  9992","l2":"2 48993  87.9078 221.9590 0001179  99.8223 260.3042 13.16588646244075"},{"id":"48994","name":"ONEWEB-0276","type":"PAYLOAD","l1":"1 48994U 21060AD  26202.30932068 -.00000014  00000-0 -70959-4 0  9997","l2":"2 48994  87.9077 221.9967 0001915  94.4075 265.7275 13.16594618244069"},{"id":"48995","name":"ONEWEB-0277","type":"PAYLOAD","l1":"1 48995U 21060AE  26202.47397877 -.00000072  00000-0 -22150-3 0  9992","l2":"2 48995  87.9072 221.9710 0002192  96.3391 263.7989 13.16595205244075"},{"id":"48996","name":"ONEWEB-0278","type":"PAYLOAD","l1":"1 48996U 21060AF  26202.31248835 -.00000094  00000-0 -28037-3 0  9999","l2":"2 48996  87.9078 221.9957 0002160  87.2637 272.8741 13.16594167244187"},{"id":"48997","name":"ONEWEB-0279","type":"PAYLOAD","l1":"1 48997U 21060AG  26202.09241324 -.00000004  00000-0 -44431-4 0  9999","l2":"2 48997  87.9077 222.0375 0002045  99.9116 260.2246 13.16594413244081"},{"id":"48998","name":"ONEWEB-0280","type":"PAYLOAD","l1":"1 48998U 21060AH  26202.48742670  .00000008  00000-0 -11565-4 0  9998","l2":"2 48998  87.9077 221.9627 0002395  91.2302 268.9103 13.16595279244077"},{"id":"48999","name":"ONEWEB-0281","type":"PAYLOAD","l1":"1 48999U 21060AJ  26202.11297775  .00000011  00000-0 -43078-5 0  9999","l2":"2 48999  87.9078 222.0331 0001922  92.9681 267.1670 13.16591633244098"},{"id":"49000","name":"ONEWEB-0282","type":"PAYLOAD","l1":"1 49000U 21060AK  26202.29506304  .00000032  00000-0  50111-4 0  9990","l2":"2 49000  87.9077 222.0042 0002211  94.6216 265.5168 13.16595277244097"},{"id":"49001","name":"ONEWEB-0283","type":"PAYLOAD","l1":"1 49001U 21060AL  26202.13199073 -.00000032  00000-0 -11800-3 0  9998","l2":"2 49001  87.9075 222.0359 0002037  97.7825 262.3537 13.16593497244089"},{"id":"49002","name":"ONEWEB-0284","type":"PAYLOAD","l1":"1 49002U 21060AM  26202.50564839  .00000099  00000-0  22645-3 0  9996","l2":"2 49002  87.9077 221.9558 0002360  88.8662 271.2739 13.16594189244116"},{"id":"49075","name":"ONEWEB-0285","type":"PAYLOAD","l1":"1 49075U 21075A   26202.36700018  .00000173  00000-0  44445-3 0  9992","l2":"2 49075  87.8978 343.8681 0001695  90.9344 269.1979 13.12446997239695"},{"id":"49076","name":"ONEWEB-0286","type":"PAYLOAD","l1":"1 49076U 21075B   26202.65401736 -.00000353  00000-0 -10156-2 0  9993","l2":"2 49076  87.8968 343.8245 0001700  92.2293 267.9030 13.12443026239083"},{"id":"49077","name":"ONEWEB-0287","type":"PAYLOAD","l1":"1 49077U 21075C   26202.41386648  .00000080  00000-0  17249-3 0  9998","l2":"2 49077  87.9152 359.0572 0001712  80.5042 279.6283 13.17648413238134"},{"id":"49078","name":"ONEWEB-0288","type":"PAYLOAD","l1":"1 49078U 21075D   26202.40172741  .00000100  00000-0  24240-3 0  9997","l2":"2 49078  87.8977 343.8538 0001875  88.1578 271.9765 13.12441316239678"},{"id":"49079","name":"ONEWEB-0289","type":"PAYLOAD","l1":"1 49079U 21075E   26202.37673599  .00000062  00000-0  12582-3 0  9994","l2":"2 49079  87.9156 359.0833 0002281  94.1411 265.9982 13.17650400238709"},{"id":"49080","name":"ONEWEB-0290","type":"PAYLOAD","l1":"1 49080U 21075F   26202.42567435  .00000098  00000-0  22043-3 0  9995","l2":"2 49080  87.9162 359.0465 0002351  94.9351 265.2049 13.17648070238121"}]}